IXPE                    
1 49954U 21121A   24139.91668981  .00012407  00000+0  95596-3 0  9995
2 49954   0.2306 250.8822 0009790 205.3590 302.3254 14.97862297  5795
